start=new Date('2021-12-21T00:00:00.000Z').valueOf();
sats=[{"APOAPSIS":"548.139","MEAN_MOTION_DOT":"0.00004558","MEAN_MOTION_DDOT":"0.0000000000000","LAUNCH_DATE":"2020-08-18","OBJECT_NAME":"STARLINK-1641","EPOCH":"2021-12-20T19:06:13.300992","GP_ID":"192110407","NORAD_CAT_ID":"46174","BSTAR":"0.00032465000000","ECCENTRICITY":"0.00013720","PERIAPSIS":"546.239","OBJECT_ID":"2020-057BK","ELEMENT_SET_NO":"999","RCS_SIZE":"LARGE","ARG_OF_PERICENTER":"73.1814","TLE_LINE1":"1 46174U 20057BK  21354.79598728  .00004558  00000-0  32465-3 0  9991","OBJECT_TYPE":"PAYLOAD","PERIOD":"95.592","RA_OF_ASC_NODE":"29.4687","REF_FRAME":"TEME","TIME_SYSTEM":"UTC","CENTER_NAME":"EARTH","TLE_LINE2":"2 46174  53.0554  29.4687 0001372  73.1814 286.9325 15.06408073 73963","COUNTRY_CODE":"US","MEAN_MOTION":"15.06408073","MEAN_ANOMALY":"286.9325","MEAN_ELEMENT_THEORY":"SGP4","INCLINATION":"53.0554","SITE":"AFETR","EPHEMERIS_TYPE":"0","REV_AT_EPOCH":"7396","CLASSIFICATION_TYPE":"U","SEMIMAJOR_AXIS":"6925.324","FILE":"3245895","DECAY_DATE":null},{"REF_FRAME":"TEME","RA_OF_ASC_NODE":"45.3171","PERIOD":"95.592","OBJECT_TYPE":"PAYLOAD","TLE_LINE1":"1 46325U 20062A   21354.60846075  .00004210  00000-0  30127-3 0  9994","ARG_OF_PERICENTER":"70.4503","RCS_SIZE":"LARGE","OBJECT_ID":"2020-062A","ELEMENT_SET_NO":"999","PERIAPSIS":"546.119","ECCENTRICITY":"0.00015360","BSTAR":"0.00030127000000","GP_ID":"192112422","NORAD_CAT_ID":"46325","EPOCH":"2021-12-20T14:36:11.008800","LAUNCH_DATE":"2020-09-03","OBJECT_NAME":"STARLINK-1734","MEAN_MOTION_DDOT":"0.0000000000000","MEAN_MOTION_DOT":"0.00004210","APOAPSIS":"548.247","DECAY_DATE":null,"FILE":"3245895","SEMIMAJOR_AXIS":"6925.318","CLASSIFICATION_TYPE":"U","REV_AT_EPOCH":"7342","SITE":"AFETR","EPHEMERIS_TYPE":"0","INCLINATION":"53.0548","MEAN_ELEMENT_THEORY":"SGP4","MEAN_MOTION":"15.06409944","MEAN_ANOMALY":"289.6652","COUNTRY_CODE":"US","TLE_LINE2":"2 46325  53.0548  45.3171 0001536  70.4503 289.6652 15.06409944 73428","CENTER_NAME":"EARTH","TIME_SYSTEM":"UTC"},{"MEAN_MOTION_DDOT":"0.0000000000000","MEAN_MOTION_DOT":"0.00002154","EPOCH":"2021-12-20T17:10:43.710816","LAUNCH_DATE":"2020-09-03","OBJECT_NAME":"STARLINK-1654","APOAPSIS":"548.162","PERIAPSIS":"546.182","ECCENTRICITY":"0.00014300","ELEMENT_SET_NO":"999","OBJECT_ID":"2020-062B","NORAD_CAT_ID":"46326","GP_ID":"192112674","BSTAR":"0.00016338000000","OBJECT_TYPE":"PAYLOAD","TLE_LINE1":"1 46326U 20062B   21354.71578369  .00002154  00000-0  16338-3 0  9998","ARG_OF_PERICENTER":"105.1431","RA_OF_ASC_NODE":"89.8235","PERIOD":"95.591","RCS_SIZE":"LARGE","REF_FRAME":"TEME","TLE_LINE2":"2 46326  53.0542  89.8235 0001430 105.1431 254.9716 15.06413596 72205","COUNTRY_CODE":"US","TIME_SYSTEM":"UTC","CENTER_NAME":"EARTH","MEAN_ANOMALY":"254.9716","MEAN_MOTION":"15.06413596","REV_AT_EPOCH":"7220","MEAN_ELEMENT_THEORY":"SGP4","SITE":"AFETR","EPHEMERIS_TYPE":"0","INCLINATION":"53.0542","FILE":"3245895","DECAY_DATE":null,"CLASSIFICATION_TYPE":"U","SEMIMAJOR_AXIS":"6925.307"},{"REF_FRAME":"TEME","RCS_SIZE":"LARGE","RA_OF_ASC_NODE":"89.6363","PERIOD":"95.592","TLE_LINE1":"1 46327U 20062C   21354.76096156  .00001475  00000-0  11786-3 0  9990","OBJECT_TYPE":"PAYLOAD","ARG_OF_PERICENTER":"105.7198","NORAD_CAT_ID":"46327","GP_ID":"192112925","BSTAR":"0.00011786000000","ELEMENT_SET_NO":"999","OBJECT_ID":"2020-062C","PERIAPSIS":"546.058","ECCENTRICITY":"0.00016440","APOAPSIS":"548.335","EPOCH":"2021-12-20T18:15:47.078784","LAUNCH_DATE":"2020-09-03","OBJECT_NAME":"STARLINK-1673","MEAN_MOTION_DDOT":"0.0000000000000","MEAN_MOTION_DOT":"0.00001475","SEMIMAJOR_AXIS":"6925.332","CLASSIFICATION_TYPE":"U","DECAY_DATE":null,"FILE":"3245895","EPHEMERIS_TYPE":"0","SITE":"AFETR","INCLINATION":"53.0556","MEAN_ELEMENT_THEORY":"SGP4","REV_AT_EPOCH":"7220","MEAN_MOTION":"15.06405540","MEAN_ANOMALY":"254.3973","CENTER_NAME":"EARTH","TIME_SYSTEM":"UTC","COUNTRY_CODE":"US","TLE_LINE2":"2 46327  53.0556  89.6363 0001644 105.7198 254.3973 15.06405540 72203"},{"REF_FRAME":"TEME","RCS_SIZE":"LARGE","RA_OF_ASC_NODE":"70.3149","PERIOD":"95.592","OBJECT_TYPE":"PAYLOAD","TLE_LINE1":"1 46328U 20062D   21354.60799642  .00002202  00000-0  16666-3 0  9995","ARG_OF_PERICENTER":"90.5255","GP_ID":"192111673","NORAD_CAT_ID":"46328","BSTAR":"0.00016666000000","ELEMENT_SET_NO":"999","OBJECT_ID":"2020-062D","PERIAPSIS":"546.279","ECCENTRICITY":"0.00013340","APOAPSIS":"548.126","EPOCH":"2021-12-20T14:35:30.890688","OBJECT_NAME":"STARLINK-1686","LAUNCH_DATE":"2020-09-03","MEAN_MOTION_DDOT":"0.0000000000000","MEAN_MOTION_DOT":"0.00002202","SEMIMAJOR_AXIS":"6925.337","CLASSIFICATION_TYPE":"U","DECAY_DATE":null,"FILE":"3245895","EPHEMERIS_TYPE":"0","SITE":"AFETR","INCLINATION":"53.0558","MEAN_ELEMENT_THEORY":"SGP4","REV_AT_EPOCH":"7246","MEAN_ANOMALY":"269.5887","MEAN_MOTION":"15.06403632","CENTER_NAME":"EARTH","TIME_SYSTEM":"UTC","COUNTRY_CODE":"US","TLE_LINE2":"2 46328  53.0558  70.3149 0001334  90.5255 269.5887 15.06403632 72466"},{"MEAN_MOTION":"15.06399639","MEAN_ANOMALY":"275.4929","TLE_LINE2":"2 46329  53.0555  70.4575 0001443  84.6224 275.4929 15.06399639 72452","COUNTRY_CODE":"US","TIME_SYSTEM":"UTC","CENTER_NAME":"EARTH","FILE":"3245895","DECAY_DATE":null,"CLASSIFICATION_TYPE":"U","SEMIMAJOR_AXIS":"6925.350","REV_AT_EPOCH":"7245","MEAN_ELEMENT_THEORY":"SGP4","INCLINATION":"53.0555","EPHEMERIS_TYPE":"0","SITE":"AFETR","ECCENTRICITY":"0.00014430","PERIAPSIS":"546.215","ELEMENT_SET_NO":"999","OBJECT_ID":"2020-062E","GP_ID":"192111923","NORAD_CAT_ID":"46329","BSTAR":"0.00002511900000","MEAN_MOTION_DOT":"0.00000093","MEAN_MOTION_DDOT":"0.0000000000000","OBJECT_NAME":"STARLINK-1695","LAUNCH_DATE":"2020-09-03","EPOCH":"2021-12-20T13:47:45.070080","APOAPSIS":"548.214","REF_FRAME":"TEME","ARG_OF_PERICENTER":"84.6224","TLE_LINE1":"1 46329U 20062E   21354.57482720  .00000093  00000-0  25119-4 0  9998","OBJECT_TYPE":"PAYLOAD","PERIOD":"95.592","RA_OF_ASC_NODE":"70.4575","RCS_SIZE":"LARGE"},{"SEMIMAJOR_AXIS":"6925.351","CLASSIFICATION_TYPE":"U","DECAY_DATE":null,"FILE":"3245895","EPHEMERIS_TYPE":"0","SITE":"AFETR","INCLINATION":"53.0542","MEAN_ELEMENT_THEORY":"SGP4","REV_AT_EPOCH":"7246","MEAN_MOTION":"15.06399311","MEAN_ANOMALY":"270.3064","CENTER_NAME":"EARTH","TIME_SYSTEM":"UTC","COUNTRY_CODE":"US","TLE_LINE2":"2 46330  53.0542  70.5098 0001457  89.8092 270.3064 15.06399311 72468","REF_FRAME":"TEME","RCS_SIZE":"LARGE","RA_OF_ASC_NODE":"70.5098","PERIOD":"95.592","OBJECT_TYPE":"PAYLOAD","TLE_LINE1":"1 46330U 20062F   21354.56376736  .00000081  00000-0  24344-4 0  9994","ARG_OF_PERICENTER":"89.8092","GP_ID":"192113174","NORAD_CAT_ID":"46330","BSTAR":"0.00002434400000","ELEMENT_SET_NO":"999","OBJECT_ID":"2020-062F","PERIAPSIS":"546.207","ECCENTRICITY":"0.00014570","APOAPSIS":"548.225","EPOCH":"2021-12-20T13:31:49.499904","OBJECT_NAME":"STARLINK-1710","LAUNCH_DATE":"2020-09-03","MEAN_MOTION_DDOT":"0.0000000000000","MEAN_MOTION_DOT":"0.00000081"},{"REV_AT_EPOCH":"7219","MEAN_ELEMENT_THEORY":"SGP4","INCLINATION":"53.0551","EPHEMERIS_TYPE":"0","SITE":"AFETR","FILE":"3245895","DECAY_DATE":null,"CLASSIFICATION_TYPE":"U","SEMIMAJOR_AXIS":"6925.320","TLE_LINE2":"2 46331  53.0551  90.0693 0001067 107.2985 252.8121 15.06409439 72192","COUNTRY_CODE":"US","TIME_SYSTEM":"UTC","CENTER_NAME":"EARTH","MEAN_MOTION":"15.06409439","MEAN_ANOMALY":"252.8121","ARG_OF_PERICENTER":"107.2985","OBJECT_TYPE":"PAYLOAD","TLE_LINE1":"1 46331U 20062G   21354.66513728  .00006680  00000-0  46681-3 0  9998","PERIOD":"95.592","RA_OF_ASC_NODE":"90.0693","RCS_SIZE":"LARGE","REF_FRAME":"TEME","MEAN_MOTION_DOT":"0.00006680","MEAN_MOTION_DDOT":"0.0000000000000","LAUNCH_DATE":"2020-09-03","OBJECT_NAME":"STARLINK-1719","EPOCH":"2021-12-20T15:57:47.860992","APOAPSIS":"547.924","ECCENTRICITY":"0.00010670","PERIAPSIS":"546.446","OBJECT_ID":"2020-062G","ELEMENT_SET_NO":"999","GP_ID":"192113425","BSTAR":"0.00046681000000","NORAD_CAT_ID":"46331"},{"MEAN_ELEMENT_THEORY":"SGP4","EPHEMERIS_TYPE":"0","SITE":"AFETR","INCLINATION":"53.0561","REV_AT_EPOCH":"7219","CLASSIFICATION_TYPE":"U","SEMIMAJOR_AXIS":"6925.321","FILE":"3245895","DECAY_DATE":null,"TIME_SYSTEM":"UTC","CENTER_NAME":"EARTH","TLE_LINE2":"2 46332  53.0561  90.0054 0001148  64.4828 295.6279 15.06409000 72198","COUNTRY_CODE":"US","MEAN_MOTION":"15.06409000","MEAN_ANOMALY":"295.6279","RCS_SIZE":"LARGE","TLE_LINE1":"1 46332U 20062H   21354.67618212  .00001825  00000-0  14135-3 0  9999","OBJECT_TYPE":"PAYLOAD","ARG_OF_PERICENTER":"64.4828","RA_OF_ASC_NODE":"90.0054","PERIOD":"95.592","REF_FRAME":"TEME","APOAPSIS":"547.981","MEAN_MOTION_DDOT":"0.0000000000000","MEAN_MOTION_DOT":"0.00001825","EPOCH":"2021-12-20T16:13:42.135168","LAUNCH_DATE":"2020-09-03","OBJECT_NAME":"STARLINK-1721","BSTAR":"0.00014135000000","GP_ID":"192112173","NORAD_CAT_ID":"46332","PERIAPSIS":"546.391","ECCENTRICITY":"0.00011480","ELEMENT_SET_NO":"999","OBJECT_ID":"2020-062H"},{"MEAN_MOTION_DOT":"0.00000645","MEAN_MOTION_DDOT":"0.0000000000000","OBJECT_NAME":"STARLINK-1723","LAUNCH_DATE":"2020-09-03","EPOCH":"2021-12-20T18:10:28.105536","APOAPSIS":"548.142","ECCENTRICITY":"0.00013820","PERIAPSIS":"546.228","OBJECT_ID":"2020-062J","ELEMENT_SET_NO":"999","BSTAR":"0.00006218800000","GP_ID":"192112423","NORAD_CAT_ID":"46333","ARG_OF_PERICENTER":"101.0432","OBJECT_TYPE":"PAYLOAD","TLE_LINE1":"1 46333U 20062J   21354.75726974  .00000645  00000-0  62188-4 0  9995","PERIOD":"95.592","RA_OF_ASC_NODE":"89.6513","RCS_SIZE":"LARGE","REF_FRAME":"TEME","TLE_LINE2":"2 46333  53.0551  89.6513 0001382 101.0432 259.0712 15.06409209 72200","COUNTRY_CODE":"US","TIME_SYSTEM":"UTC","CENTER_NAME":"EARTH","MEAN_MOTION":"15.06409209","MEAN_ANOMALY":"259.0712","REV_AT_EPOCH":"7220","MEAN_ELEMENT_THEORY":"SGP4","INCLINATION":"53.0551","EPHEMERIS_TYPE":"0","SITE":"AFETR","FILE":"3245895","DECAY_DATE":null,"CLASSIFICATION_TYPE":"U","SEMIMAJOR_AXIS":"6925.320"}];
